{
  "type": "FeatureCollection",
  "features": [
    {
      "type": "Feature",
      "properties": {
        "norad_id": 66982,
        "name": "STARLINK-36113",
        "group": "last-30-days",
        "lat": 2.425559243414699,
        "lon": 84.59981134821348,
        "alt_km": 389.34157127890285,
        "timestamp": "2025-12-26T17:24:53.442821+00:00",
        "meta_object_name": "STARLINK-36113",
        "meta_object_id": "2025-288Z",
        "meta_epoch": "2025-12-26T06:00:02.999808",
        "meta_mean_motion": 15.6120501,
        "meta_eccentricity": 0.00010156,
        "meta_inclination": 42.9998,
        "meta_ra_of_asc_node": 84.8171,
        "meta_arg_of_pericenter": 273.9576,
        "meta_mean_anomaly": 295.2582,
        "meta_ephemeris_type": 0,
        "meta_classification_type": "U",
        "meta_norad_cat_id": 66982,
        "meta_element_set_no": 999,
        "meta_rev_at_epoch": 400,
        "meta_bstar": -0.025518935,
        "meta_mean_motion_dot": -0.01955883,
        "meta_mean_motion_ddot": 0,
        "tle_line1": "1 66982U 25288Z   25360.25003472 -.01955883  00000+0 -25519-1 0  9998",
        "tle_line2": "2 66982  42.9998  84.8171 0001015 273.9576 295.2582 15.61205010  4007"
      },
      "geometry": {
        "type": "Point",
        "coordinates": [
          84.59981134821348,
          2.425559243414699
        ]
      }
    },
    {
      "type": "Feature",
      "properties": {
        "norad_id": 66983,
        "name": "STARLINK-36145",
        "group": "last-30-days",
        "lat": 5.035444664680525,
        "lon": 87.41039929522225,
        "alt_km": 389.1838720240039,
        "timestamp": "2025-12-26T17:24:53.442832+00:00",
        "meta_object_name": "STARLINK-36145",
        "meta_object_id": "2025-288AA",
        "meta_epoch": "2025-12-26T06:00:02.999808",
        "meta_mean_motion": 15.61203435,
        "meta_eccentricity": 9.32e-05,
        "meta_inclination": 42.9999,
        "meta_ra_of_asc_node": 84.8073,
        "meta_arg_of_pericenter": 272.4883,
        "meta_mean_anomaly": 300.5644,
        "meta_ephemeris_type": 0,
        "meta_classification_type": "U",
        "meta_norad_cat_id": 66983,
        "meta_element_set_no": 999,
        "meta_rev_at_epoch": 400,
        "meta_bstar": -0.025463794,
        "meta_mean_motion_dot": -0.01952004,
        "meta_mean_motion_ddot": 0,
        "tle_line1": "1 66983U 25288AA  25360.25003472 -.01952004  00000+0 -25464-1 0  9990",
        "tle_line2": "2 66983  42.9999  84.8073 0000932 272.4883 300.5644 15.61203435  4000"
      },
      "geometry": {
        "type": "Point",
        "coordinates": [
          87.41039929522225,
          5.035444664680525
        ]
      }
    },
    {
      "type": "Feature",
      "properties": {
        "norad_id": 66984,
        "name": "STARLINK-35591",
        "group": "last-30-days",
        "lat": 3.7325119479831823,
        "lon": 86.00325056334232,
        "alt_km": 389.36300905227654,
        "timestamp": "2025-12-26T17:24:53.442844+00:00",
        "meta_object_name": "STARLINK-35591",
        "meta_object_id": "2025-288AB",
        "meta_epoch": "2025-12-26T06:00:02.999808",
        "meta_mean_motion": 15.61202722,
        "meta_eccentricity": 8.726e-05,
        "meta_inclination": 43,
        "meta_ra_of_asc_node": 84.8115,
        "meta_arg_of_pericenter": 270.4659,
        "meta_mean_anomaly": 300.6702,
        "meta_ephemeris_type": 0,
        "meta_classification_type": "U",
        "meta_norad_cat_id": 66984,
        "meta_element_set_no": 999,
        "meta_rev_at_epoch": 400,
        "meta_bstar": -0.025445395,
        "meta_mean_motion_dot": -0.01950676,
        "meta_mean_motion_ddot": 0,
        "tle_line1": "1 66984U 25288AB  25360.25003472 -.01950676  00000+0 -25445-1 0  9993",
        "tle_line2": "2 66984  43.0000  84.8115 0000872 270.4659 300.6702 15.61202722  4009"
      },
      "geometry": {
        "type": "Point",
        "coordinates": [
          86.00325056334232,
          3.7325119479831823
        ]
      }
    },
    {
      "type": "Feature",
      "properties": {
        "norad_id": 66985,
        "name": "STARLINK-36103",
        "group": "last-30-days",
        "lat": 6.335408321755497,
        "lon": 88.82243202967742,
        "alt_km": 389.04311272227915,
        "timestamp": "2025-12-26T17:24:53.442854+00:00",
        "meta_object_name": "STARLINK-36103",
        "meta_object_id": "2025-288AC",
        "meta_epoch": "2025-12-26T06:00:02.999808",
        "meta_mean_motion": 15.61202295,
        "meta_eccentricity": 9.581e-05,
        "meta_inclination": 43.0002,
        "meta_ra_of_asc_node": 84.8023,
        "meta_arg_of_pericenter": 272.1865,
        "meta_mean_anomaly": 302.7837,
        "meta_ephemeris_type": 0,
        "meta_classification_type": "U",
        "meta_norad_cat_id": 66985,
        "meta_element_set_no": 999,
        "meta_rev_at_epoch": 400,
        "meta_bstar": -0.025443402,
        "meta_mean_motion_dot": -0.01950569,
        "meta_mean_motion_ddot": 0,
        "tle_line1": "1 66985U 25288AC  25360.25003472 -.01950569  00000+0 -25443-1 0  9993",
        "tle_line2": "2 66985  43.0002  84.8023 0000958 272.1865 302.7837 15.61202295  4000"
      },
      "geometry": {
        "type": "Point",
        "coordinates": [
          88.82243202967742,
          6.335408321755497
        ]
      }
    },
    {
      "type": "Feature",
      "properties": {
        "norad_id": 66986,
        "name": "STARLINK-36135",
        "group": "last-30-days",
        "lat": 7.629903222273947,
        "lon": 90.23935527226662,
        "alt_km": 388.933918225699,
        "timestamp": "2025-12-26T17:24:53.442864+00:00",
        "meta_object_name": "STARLINK-36135",
        "meta_object_id": "2025-288AD",
        "meta_epoch": "2025-12-26T06:00:02.999808",
        "meta_mean_motion": 15.61202278,
        "meta_eccentricity": 9.946e-05,
        "meta_inclination": 43.0003,
        "meta_ra_of_asc_node": 84.7968,
        "meta_arg_of_pericenter": 270.2165,
        "meta_mean_anomaly": 306.6675,
        "meta_ephemeris_type": 0,
        "meta_classification_type": "U",
        "meta_norad_cat_id": 66986,
        "meta_element_set_no": 999,
        "meta_rev_at_epoch": 400,
        "meta_bstar": -0.025431084,
        "meta_mean_motion_dot": -0.01949762,
        "meta_mean_motion_ddot": 0,
        "tle_line1": "1 66986U 25288AD  25360.25003472 -.01949762  00000+0 -25431-1 0  9994",
        "tle_line2": "2 66986  43.0003  84.7968 0000994 270.2165 306.6675 15.61202278  4005"
      },
      "geometry": {
        "type": "Point",
        "coordinates": [
          90.23935527226662,
          7.629903222273947
        ]
      }
    },
    {
      "type": "Feature",
      "properties": {
        "norad_id": 66987,
        "name": "STARLINK-36147",
        "group": "last-30-days",
        "lat": 8.922436484348856,
        "lon": 91.66960587305,
        "alt_km": 388.6583828799194,
        "timestamp": "2025-12-26T17:24:53.442874+00:00",
        "meta_object_name": "STARLINK-36147",
        "meta_object_id": "2025-288AE",
        "meta_epoch": "2025-12-26T06:00:02.999808",
        "meta_mean_motion": 15.61200119,
        "meta_eccentricity": 9.129e-05,
        "meta_inclination": 43.0001,
        "meta_ra_of_asc_node": 84.7929,
        "meta_arg_of_pericenter": 275.9683,
        "meta_mean_anomaly": 302.8347,
        "meta_ephemeris_type": 0,
        "meta_classification_type": "U",
        "meta_norad_cat_id": 66987,
        "meta_element_set_no": 999,
        "meta_rev_at_epoch": 400,
        "meta_bstar": -0.02537052,
        "meta_mean_motion_dot": -0.01945477,
        "meta_mean_motion_ddot": 0,
        "tle_line1": "1 66987U 25288AE  25360.25003472 -.01945477  00000+0 -25371-1 0  9997",
        "tle_line2": "2 66987  43.0001  84.7929 0000912 275.9683 302.8347 15.61200119  4004"
      },
      "geometry": {
        "type": "Point",
        "coordinates": [
          91.66960587305,
          8.922436484348856
        ]
      }
    },
    {
      "type": "Feature",
      "properties": {
        "norad_id": 66988,
        "name": "YAOGAN-47",
        "group": "last-30-days",
        "lat": -40.94685880616592,
        "lon": 72.4686481146752,
        "alt_km": 502.7354273876754,
        "timestamp": "2025-12-26T17:24:53.442884+00:00",
        "meta_object_name": "YAOGAN-47",
        "meta_object_id": "2025-289A",
        "meta_epoch": "2025-12-20T02:21:43.539840",
        "meta_mean_motion": 15.23243112,
        "meta_eccentricity": 6.467e-05,
        "meta_inclination": 97.5265,
        "meta_ra_of_asc_node": 59.2376,
        "meta_arg_of_pericenter": 91.4531,
        "meta_mean_anomaly": 268.678,
        "meta_ephemeris_type": 0,
        "meta_classification_type": "U",
        "meta_norad_cat_id": 66988,
        "meta_element_set_no": 999,
        "meta_rev_at_epoch": 166,
        "meta_bstar": 0.00010945697,
        "meta_mean_motion_dot": 2.52e-05,
        "meta_mean_motion_ddot": 0,
        "tle_line1": "1 66988U 25289A   25354.09842060  .00002520  00000+0  10946-3 0  9992",
        "tle_line2": "2 66988  97.5265  59.2376 0000646  91.4531 268.6780 15.23243112  1668"
      },
      "geometry": {
        "type": "Point",
        "coordinates": [
          72.4686481146752,
          -40.94685880616592
        ]
      }
    }
  ]
}